{"type": "FeatureCollection", "features": [ {"type": "Feature", "properties": {"norad_id": 33492, "name": "GOSAT (IBUKI)", "group": "resource", "lat": -42.90954453512162, "lon": -102.02724599016545, "alt_km": 676.0954897999763, "timestamp": "2025-12-02T19:35:50.218460+00:00", "meta": {"OBJECT_NAME": "GOSAT (IBUKI)", "OBJECT_ID": "2009-002A", "EPOCH": "2025-12-02T07:07:41.344320", "MEAN_MOTION": 14.67547932, "ECCENTRICITY": 9.94e-05, "INCLINATION": 98.0766, "RA_OF_ASC_NODE": 85.0456, "ARG_OF_PERICENTER": 83.9831, "MEAN_ANOMALY": 276.1487, "EPHEMERIS_TYPE": 0, "CLASSIFICATION_TYPE": "U", "NORAD_CAT_ID": 33492, "ELEMENT_SET_NO": 999, "REV_AT_EPOCH": 90258, "BSTAR": 0.00023549, "MEAN_MOTION_DOT": 1.288e-05, "MEAN_MOTION_DDOT": 0}, "tle": {"line1": "1 33492U 09002A   25336.29700630  .00001288  00000+0  23549-3 0  9992", "line2": "2 33492  98.0766  85.0456 0000994  83.9831 276.1487 14.67547932902588"}}, "geometry": {"type": "Point", "coordinates": [-102.02724599016545, -42.90954453512162]}}, {"type": "Feature", "properties": {"norad_id": 35681, "name": "DEIMOS-1", "group": "resource", "lat": 37.100072224796484, "lon": 131.99800463594607, "alt_km": 641.80375750864, "timestamp": "2025-12-02T19:35:50.218472+00:00", "meta": {"OBJECT_NAME": "DEIMOS-1", "OBJECT_ID": "2009-041A", "EPOCH": "2025-12-02T12:54:54.313632", "MEAN_MOTION": 14.74926986, "ECCENTRICITY": 0.0002667, "INCLINATION": 97.7145, "RA_OF_ASC_NODE": 137.6169, "ARG_OF_PERICENTER": 98.1757, "MEAN_ANOMALY": 261.9755, "EPHEMERIS_TYPE": 0, "CLASSIFICATION_TYPE": "U", "NORAD_CAT_ID": 35681, "ELEMENT_SET_NO": 999, "REV_AT_EPOCH": 87789, "BSTAR": 0.00015712, "MEAN_MOTION_DOT": 1.008e-05, "MEAN_MOTION_DDOT": 0}, "tle": {"line1": "1 35681U 09041A   25336.53812863  .00001008  00000+0  15712-3 0  9999", "line2": "2 35681  97.7145 137.6169 0002667  98.1757 261.9755 14.74926986877899"}}, "geometry": {"type": "Point", "coordinates": [131.99800463594607, 37.100072224796484]}}, {"type": "Feature", "properties": {"norad_id": 35682, "name": "DUBAISAT-1", "group": "resource", "lat": -14.904836308779023, "lon": 109.78250712459602, "alt_km": 644.1107073016365, "timestamp": "2025-12-02T19:35:50.218483+00:00", "meta": {"OBJECT_NAME": "DUBAISAT-1", "OBJECT_ID": "2009-041B", "EPOCH": "2025-12-02T08:15:54.405216", "MEAN_MOTION": 14.74555346, "ECCENTRICITY": 0.0010231, "INCLINATION": 97.9785, "RA_OF_ASC_NODE": 107.1781, "ARG_OF_PERICENTER": 349.8881, "MEAN_ANOMALY": 10.212, "EPHEMERIS_TYPE": 0, "CLASSIFICATION_TYPE": "U", "NORAD_CAT_ID": 35682, "ELEMENT_SET_NO": 999, "REV_AT_EPOCH": 87608, "BSTAR": 0.00025522, "MEAN_MOTION_DOT": 1.65e-05, "MEAN_MOTION_DDOT": 0}, "tle": {"line1": "1 35682U 09041B   25336.34437969  .00001650  00000+0  25522-3 0  9992", "line2": "2 35682  97.9785 107.1781 0010231 349.8881  10.2120 14.74555346876083"}}, "geometry": {"type": "Point", "coordinates": [109.78250712459602, -14.904836308779023]}}, {"type": "Feature", "properties": {"norad_id": 35931, "name": "OCEANSAT-2", "group": "resource", "lat": -43.23196102128579, "lon": -13.763491682196463, "alt_km": 906.690992705674, "timestamp": "2025-12-02T19:35:50.218499+00:00", "meta": {"OBJECT_NAME": "OCEANSAT-2", "OBJECT_ID": "2009-051A", "EPOCH": "2025-12-02T11:13:39.508896", "MEAN_MOTION": 13.99626819, "ECCENTRICITY": 0.0016649, "INCLINATION": 98.2232, "RA_OF_ASC_NODE": 338.1098, "ARG_OF_PERICENTER": 71.7158, "MEAN_ANOMALY": 288.5818, "EPHEMERIS_TYPE": 0, "CLASSIFICATION_TYPE": "U", "NORAD_CAT_ID": 35931, "ELEMENT_SET_NO": 999, "REV_AT_EPOCH": 85181, "BSTAR": -7.9742e-05, "MEAN_MOTION_DOT": -1.54e-06, "MEAN_MOTION_DDOT": 0}, "tle": {"line1": "1 35931U 09051A   25336.46781839 -.00000154  00000+0 -79742-4 0  9995", "line2": "2 35931  98.2232 338.1098 0016649  71.7158 288.5818 13.99626819851813"}}, "geometry": {"type": "Point", "coordinates": [-13.763491682196463, -43.23196102128579]}}, {"type": "Feature", "properties": {"norad_id": 35946, "name": "WORLDVIEW-2 (WV-2)", "group": "resource", "lat": 18.836979582726418, "lon": -129.04409539163132, "alt_km": 765.1892283964771, "timestamp": "2025-12-02T19:35:50.218511+00:00", "meta": {"OBJECT_NAME": "WORLDVIEW-2 (WV-2)", "OBJECT_ID": "2009-055A", "EPOCH": "2025-12-02T12:10:14.460384", "MEAN_MOTION": 14.37644939, "ECCENTRICITY": 0.0005445, "INCLINATION": 98.4772, "RA_OF_ASC_NODE": 47.7344, "ARG_OF_PERICENTER": 91.4083, "MEAN_ANOMALY": 268.7727, "EPHEMERIS_TYPE": 0, "CLASSIFICATION_TYPE": "U", "NORAD_CAT_ID": 35946, "ELEMENT_SET_NO": 999, "REV_AT_EPOCH": 84738, "BSTAR": 0.00010105, "MEAN_MOTION_DOT": 2.6e-06, "MEAN_MOTION_DDOT": 0}, "tle": {"line1": "1 35946U 09055A   25336.50711181  .00000260  00000+0  10105-3 0  9996", "line2": "2 35946  98.4772  47.7344 0005445  91.4083 268.7727 14.37644939847387"}}, "geometry": {"type": "Point", "coordinates": [-129.04409539163132, 18.836979582726418]}}, {"type": "Feature", "properties": {"norad_id": 36036, "name": "SMOS", "group": "resource", "lat": 57.31040762495747, "lon": -4.613669323996316, "alt_km": 753.1974664859545, "timestamp": "2025-12-02T19:35:50.218536+00:00", "meta": {"OBJECT_NAME": "SMOS", "OBJECT_ID": "2009-059A", "EPOCH": "2025-12-02T12:21:46.291104", "MEAN_MOTION": 14.39787385, "ECCENTRICITY": 0.0001047, "INCLINATION": 98.4384, "RA_OF_ASC_NODE": 161.7144, "ARG_OF_PERICENTER": 71.9431, "MEAN_ANOMALY": 288.1871, "EPHEMERIS_TYPE": 0, "CLASSIFICATION_TYPE": "U", "NORAD_CAT_ID": 36036, "ELEMENT_SET_NO": 999, "REV_AT_EPOCH": 84515, "BSTAR": 0.00019195, "MEAN_MOTION_DOT": 5.58e-06, "MEAN_MOTION_DDOT": 0}, "tle": {"line1": "1 36036U 09059A   25336.51511911  .00000558  00000+0  19195-3 0  9999", "line2": "2 36036  98.4384 161.7144 0001047  71.9431 288.1871 14.39787385845150"}}, "geometry": {"type": "Point", "coordinates": [-4.613669323996316, 57.31040762495747]}}, {"type": "Feature", "properties": {"norad_id": 36110, "name": "YAOGAN-7", "group": "resource", "lat": 32.08409150292758, "lon": -146.46914904161204, "alt_km": 631.1167816773022, "timestamp": "2025-12-02T19:35:50.218549+00:00", "meta": {"OBJECT_NAME": "YAOGAN-7", "OBJECT_ID": "2009-069A", "EPOCH": "2025-12-02T06:27:01.181088", "MEAN_MOTION": 14.7770645, "ECCENTRICITY": 0.0023847, "INCLINATION": 98.0304, "RA_OF_ASC_NODE": 218.0628, "ARG_OF_PERICENTER": 316.626, "MEAN_ANOMALY": 43.3073, "EPHEMERIS_TYPE": 0, "CLASSIFICATION_TYPE": "U", "NORAD_CAT_ID": 36110, "ELEMENT_SET_NO": 999, "REV_AT_EPOCH": 86054, "BSTAR": 0.00014376, "MEAN_MOTION_DOT": 9.81e-06, "MEAN_MOTION_DDOT": 0}, "tle": {"line1": "1 36110U 09069A   25336.26876367  .00000981  00000+0  14376-3 0  9990", "line2": "2 36110  98.0304 218.0628 0023847 316.6260  43.3073 14.77706450860546"}}, "geometry": {"type": "Point", "coordinates": [-146.46914904161204, 32.08409150292758]}}, {"type": "Feature", "properties": {"norad_id": 36605, "name": "TANDEM-X", "group": "resource", "lat": -59.77602830152491, "lon": 149.37107133748293, "alt_km": 516.6400401463234, "timestamp": "2025-12-02T19:35:50.218559+00:00", "meta": {"OBJECT_NAME": "TANDEM-X", "OBJECT_ID": "2010-030A", "EPOCH": "2025-12-01T15:40:02.616384", "MEAN_MOTION": 15.19150166, "ECCENTRICITY": 0.0001799, "INCLINATION": 97.4445, "RA_OF_ASC_NODE": 341.1948, "ARG_OF_PERICENTER": 94.6739, "MEAN_ANOMALY": 265.4701, "EPHEMERIS_TYPE": 0, "CLASSIFICATION_TYPE": "U", "NORAD_CAT_ID": 36605, "ELEMENT_SET_NO": 999, "REV_AT_EPOCH": 85665, "BSTAR": 8.3295316e-05, "MEAN_MOTION_DOT": 1.682e-05, "MEAN_MOTION_DDOT": 0}, "tle": {"line1": "1 36605U 10030A   25335.65280806  .00001682  00000+0  83295-4 0  9994", "line2": "2 36605  97.4445 341.1948 0001799  94.6739 265.4701 15.19150166856659"}}, "geometry": {"type": "Point", "coordinates": [149.37107133748293, -59.77602830152491]}}, {"type": "Feature", "properties": {"norad_id": 36795, "name": "CARTOSAT-2B", "group": "resource", "lat": -75.30837854639941, "lon": 57.62888460270887, "alt_km": 649.5562274759559, "timestamp": "2025-12-02T19:35:50.218570+00:00", "meta": {"OBJECT_NAME": "CARTOSAT-2B", "OBJECT_ID": "2010-035A", "EPOCH": "2025-12-02T11:49:41.403648", "MEAN_MOTION": 14.78762532, "ECCENTRICITY": 0.0012861, "INCLINATION": 97.7867, "RA_OF_ASC_NODE": 25.8553, "ARG_OF_PERICENTER": 107.6532, "MEAN_ANOMALY": 252.6085, "EPHEMERIS_TYPE": 0, "CLASSIFICATION_TYPE": "U", "NORAD_CAT_ID": 36795, "ELEMENT_SET_NO": 999, "REV_AT_EPOCH": 83078, "BSTAR": 0.00015557, "MEAN_MOTION_DOT": 1.094e-05, "MEAN_MOTION_DDOT": 0}, "tle": {"line1": "1 36795U 10035A   25336.49284032  .00001094  00000+0  15557-3 0  9999", "line2": "2 36795  97.7867  25.8553 0012861 107.6532 252.6085 14.78762532830785"}}, "geometry": {"type": "Point", "coordinates": [57.62888460270887, -75.30837854639941]}}, {"type": "Feature", "properties": {"norad_id": 36834, "name": "YAOGAN-10", "group": "resource", "lat": 24.288155768353853, "lon": -179.68881398640679, "alt_km": 614.0873587853694, "timestamp": "2025-12-02T19:35:50.218581+00:00", "meta": {"OBJECT_NAME": "YAOGAN-10", "OBJECT_ID": "2010-038A", "EPOCH": "2025-12-02T13:06:30.027168", "MEAN_MOTION": 14.84546854, "ECCENTRICITY": 0.000151, "INCLINATION": 97.9151, "RA_OF_ASC_NODE": 356.4433, "ARG_OF_PERICENTER": 84.8505, "MEAN_ANOMALY": 66.4021, "EPHEMERIS_TYPE": 0, "CLASSIFICATION_TYPE": "U", "NORAD_CAT_ID": 36834, "ELEMENT_SET_NO": 999, "REV_AT_EPOCH": 82802, "BSTAR": 0.00015299, "MEAN_MOTION_DOT": 1.237e-05, "MEAN_MOTION_DDOT": 0}, "tle": {"line1": "1 36834U 10038A   25336.54618087  .00001237  00000+0  15299-3 0  9995", "line2": "2 36834  97.9151 356.4433 0001510  84.8505  66.4021 14.84546854828021"}}, "geometry": {"type": "Point", "coordinates": [-179.68881398640679, 24.288155768353853]}}]}